{
  "type": "FeatureCollection",
  "features": [
    {
      "type": "Feature",
      "properties": {
        "norad_id": 41330,
        "name": "COSMOS 2514 (751)",
        "group": "gnss",
        "lat": 42.08229959937531,
        "lon": 114.7578793098022,
        "alt_km": 19123.71899365934,
        "timestamp": "2025-12-09T09:46:47.889046+00:00",
        "meta_object_name": "COSMOS 2514 (751)",
        "meta_object_id": "2016-008A",
        "meta_epoch": "2025-12-08T07:06:30.420288",
        "meta_mean_motion": 2.13102512,
        "meta_eccentricity": 0.00122682,
        "meta_inclination": 65.1364,
        "meta_ra_of_asc_node": 319.5561,
        "meta_arg_of_pericenter": 220.0272,
        "meta_mean_anomaly": 139.8771,
        "meta_ephemeris_type": 0,
        "meta_classification_type": "U",
        "meta_norad_cat_id": 41330,
        "meta_element_set_no": 999,
        "meta_rev_at_epoch": 7655,
        "meta_bstar": 0,
        "meta_mean_motion_dot": -4.9e-07,
        "meta_mean_motion_ddot": 0,
        "tle_line1": "1 41330U 16008A   25342.29618542 -.00000049  00000+0  00000+0 0  9991",
        "tle_line2": "2 41330  65.1364 319.5561 0012268 220.0272 139.8771  2.13102512 76558"
      },
      "geometry": {
        "type": "Point",
        "coordinates": [
          114.7578793098022,
          42.08229959937531
        ]
      }
    },
    {
      "type": "Feature",
      "properties": {
        "norad_id": 41384,
        "name": "IRNSS-1F",
        "group": "gnss",
        "lat": 1.959087855772018,
        "lon": -102.56517810768003,
        "alt_km": 35699.24425649063,
        "timestamp": "2025-12-09T09:46:47.889068+00:00",
        "meta_object_name": "IRNSS-1F",
        "meta_object_id": "2016-015A",
        "meta_epoch": "2025-12-09T01:44:31.732800",
        "meta_mean_motion": 1.00270577,
        "meta_eccentricity": 0.0022492,
        "meta_inclination": 4.8714,
        "meta_ra_of_asc_node": 101.3906,
        "meta_arg_of_pericenter": 180.2244,
        "meta_mean_anomaly": 214.9479,
        "meta_ephemeris_type": 0,
        "meta_classification_type": "U",
        "meta_norad_cat_id": 41384,
        "meta_element_set_no": 999,
        "meta_rev_at_epoch": 3576,
        "meta_bstar": 0,
        "meta_mean_motion_dot": 1.6e-06,
        "meta_mean_motion_ddot": 0,
        "tle_line1": "1 41384U 16015A   25343.07258950  .00000160  00000+0  00000+0 0  9991",
        "tle_line2": "2 41384   4.8714 101.3906 0022492 180.2244 214.9479  1.00270577 35762"
      },
      "geometry": {
        "type": "Point",
        "coordinates": [
          -102.56517810768003,
          1.959087855772018
        ]
      }
    },
    {
      "type": "Feature",
      "properties": {
        "norad_id": 41434,
        "name": "BEIDOU-2 IGSO-6 (C13)",
        "group": "gnss",
        "lat": -58.92889694799414,
        "lon": -33.59782374384154,
        "alt_km": 35623.18791673698,
        "timestamp": "2025-12-09T09:46:47.889087+00:00",
        "meta_object_name": "BEIDOU-2 IGSO-6 (C13)",
        "meta_object_id": "2016-021A",
        "meta_epoch": "2025-12-03T15:53:57.382080",
        "meta_mean_motion": 1.00293531,
        "meta_eccentricity": 0.00596341,
        "meta_inclination": 59.9536,
        "meta_ra_of_asc_node": 39.991,
        "meta_arg_of_pericenter": 228.541,
        "meta_mean_anomaly": 135.1173,
        "meta_ephemeris_type": 0,
        "meta_classification_type": "U",
        "meta_norad_cat_id": 41434,
        "meta_element_set_no": 999,
        "meta_rev_at_epoch": 3552,
        "meta_bstar": 0,
        "meta_mean_motion_dot": -1.61e-06,
        "meta_mean_motion_ddot": 0,
        "tle_line1": "1 41434U 16021A   25337.66246970 -.00000161  00000+0  00000+0 0  9993",
        "tle_line2": "2 41434  59.9536  39.9910 0059634 228.5410 135.1173  1.00293531 35525"
      },
      "geometry": {
        "type": "Point",
        "coordinates": [
          -33.59782374384154,
          -58.92889694799414
        ]
      }
    },
    {
      "type": "Feature",
      "properties": {
        "norad_id": 41469,
        "name": "IRNSS-1G",
        "group": "gnss",
        "lat": -4.494795803331723,
        "lon": -5.767995899355049,
        "alt_km": 35790.36279282924,
        "timestamp": "2025-12-09T09:46:47.889110+00:00",
        "meta_object_name": "IRNSS-1G",
        "meta_object_id": "2016-027A",
        "meta_epoch": "2025-12-08T23:09:51.521760",
        "meta_mean_motion": 1.00251176,
        "meta_eccentricity": 0.000464,
        "meta_inclination": 4.7237,
        "meta_ra_of_asc_node": 102.1968,
        "meta_arg_of_pericenter": 335.8028,
        "meta_mean_anomaly": 116.7,
        "meta_ephemeris_type": 0,
        "meta_classification_type": "U",
        "meta_norad_cat_id": 41469,
        "meta_element_set_no": 999,
        "meta_rev_at_epoch": 3527,
        "meta_bstar": 0,
        "meta_mean_motion_dot": -3.35e-06,
        "meta_mean_motion_ddot": 0,
        "tle_line1": "1 41469U 16027A   25342.96517965 -.00000335  00000+0  00000+0 0  9994",
        "tle_line2": "2 41469   4.7237 102.1968 0004640 335.8028 116.7000  1.00251176 35274"
      },
      "geometry": {
        "type": "Point",
        "coordinates": [
          -5.767995899355049,
          -4.494795803331723
        ]
      }
    },
    {
      "type": "Feature",
      "properties": {
        "norad_id": 41549,
        "name": "GSAT0211 (GALILEO 14)",
        "group": "gnss",
        "lat": 37.36954988482525,
        "lon": -100.96198107450991,
        "alt_km": 23207.790644649333,
        "timestamp": "2025-12-09T09:46:47.889131+00:00",
        "meta_object_name": "GSAT0211 (GALILEO 14)",
        "meta_object_id": "2016-030A",
        "meta_epoch": "2025-12-07T13:40:58.264320",
        "meta_mean_motion": 1.70472997,
        "meta_eccentricity": 0.00040128,
        "meta_inclination": 55.154,
        "meta_ra_of_asc_node": 226.9659,
        "meta_arg_of_pericenter": 14.4678,
        "meta_mean_anomaly": 345.6377,
        "meta_ephemeris_type": 0,
        "meta_classification_type": "U",
        "meta_norad_cat_id": 41549,
        "meta_element_set_no": 999,
        "meta_rev_at_epoch": 5940,
        "meta_bstar": 0,
        "meta_mean_motion_dot": 2.3e-07,
        "meta_mean_motion_ddot": 0,
        "tle_line1": "1 41549U 16030A   25341.57011880  .00000023  00000+0  00000+0 0  9991",
        "tle_line2": "2 41549  55.1540 226.9659 0004012  14.4678 345.6377  1.70472997 59400"
      },
      "geometry": {
        "type": "Point",
        "coordinates": [
          -100.96198107450991,
          37.36954988482525
        ]
      }
    },
    {
      "type": "Feature",
      "properties": {
        "norad_id": 41550,
        "name": "GSAT0210 (GALILEO 13)",
        "group": "gnss",
        "lat": -50.32961911258209,
        "lon": 103.99108909174409,
        "alt_km": 23223.85795631635,
        "timestamp": "2025-12-09T09:46:47.889149+00:00",
        "meta_object_name": "GSAT0210 (GALILEO 13)",
        "meta_object_id": "2016-030B",
        "meta_epoch": "2025-12-07T19:51:37.971648",
        "meta_mean_motion": 1.70473554,
        "meta_eccentricity": 0.00013454,
        "meta_inclination": 55.1532,
        "meta_ra_of_asc_node": 226.9569,
        "meta_arg_of_pericenter": 243.5769,
        "meta_mean_anomaly": 116.5022,
        "meta_ephemeris_type": 0,
        "meta_classification_type": "U",
        "meta_norad_cat_id": 41550,
        "meta_element_set_no": 999,
        "meta_rev_at_epoch": 5940,
        "meta_bstar": 0,
        "meta_mean_motion_dot": 2.1e-07,
        "meta_mean_motion_ddot": 0,
        "tle_line1": "1 41550U 16030B   25341.82752282  .00000021  00000+0  00000+0 0  9997",
        "tle_line2": "2 41550  55.1532 226.9569 0001345 243.5769 116.5022  1.70473554 59407"
      },
      "geometry": {
        "type": "Point",
        "coordinates": [
          103.99108909174409,
          -50.32961911258209
        ]
      }
    },
    {
      "type": "Feature",
      "properties": {
        "norad_id": 41586,
        "name": "BEIDOU-2 G7 (C03)",
        "group": "gnss",
        "lat": -1.7510135187280182,
        "lon": -24.49021722914989,
        "alt_km": 35788.53711972957,
        "timestamp": "2025-12-09T09:46:47.889167+00:00",
        "meta_object_name": "BEIDOU-2 G7 (C03)",
        "meta_object_id": "2016-037A",
        "meta_epoch": "2025-12-09T02:58:38.764992",
        "meta_mean_motion": 1.00268678,
        "meta_eccentricity": 0.0004345,
        "meta_inclination": 1.748,
        "meta_ra_of_asc_node": 67.6955,
        "meta_arg_of_pericenter": 1.8302,
        "meta_mean_anomaly": 163.7219,
        "meta_ephemeris_type": 0,
        "meta_classification_type": "U",
        "meta_norad_cat_id": 41586,
        "meta_element_set_no": 999,
        "meta_rev_at_epoch": 498,
        "meta_bstar": 0,
        "meta_mean_motion_dot": -3.51e-06,
        "meta_mean_motion_ddot": 0,
        "tle_line1": "1 41586U 16037A   25343.12405978 -.00000351  00000+0  00000+0 0  9992",
        "tle_line2": "2 41586   1.7480  67.6955 0004345   1.8302 163.7219  1.00268678  4982"
      },
      "geometry": {
        "type": "Point",
        "coordinates": [
          -24.49021722914989,
          -1.7510135187280182
        ]
      }
    }
  ]
}